OBJECT_NAME,OBJECT_ID,EPOCH,MEAN_MOTION,ECCENTRICITY,INCLINATION,RA_OF_ASC_NODE,ARG_OF_PERICENTER,MEAN_ANOMALY,EPHEMERIS_TYPE,CLASSIFICATION_TYPE,NORAD_CAT_ID,ELEMENT_SET_NO,REV_AT_EPOCH,BSTAR,MEAN_MOTION_DOT,MEAN_MOTION_DDOT
BEIDOU-3 IGSO-3,2019-073A,2024-09-22T11:05:09.672000,1.00272911,.0041269,55.8857,287.6943,190.9485,168.9962,0,U,44709,999,1809,0,-.17E-5,0
TIBA-1,2019-080A,2024-09-23T07:39:42.735168,1.00270938,.0002543,0.0574,356.8993,202.0639,314.1065,0,U,44800,999,1772,0,.144E-5,0
INMARSAT GX5,2019-080B,2024-09-23T09:28:42.701952,1.00270659,.0002147,0.0165,7.5502,200.9765,307.3666,0,U,44801,999,47,0,.63E-6,0
JCSAT-18 (KACIFIC 1),2019-091A,2024-09-23T05:53:42.895104,1.00271918,.0000796,0.0457,348.3570,267.9110,344.7356,0,U,44868,999,1767,0,-.213E-5,0
ELEKTRO-L 3,2019-095A,2024-09-23T13:00:17.582688,1.00272551,.0001128,0.0782,303.9587,286.0858,43.8919,0,U,44903,999,1736,0,-.109E-5,0
SHIJIAN-20 (SJ-20),2019-097A,2024-09-23T16:41:42.686880,1.00277051,.0008298,3.2928,82.7581,115.9285,127.8087,0,U,44910,999,1736,0,-.81E-6,0
TJS-5,2020-002A,2024-09-23T13:09:18.048384,1.00271701,.0003842,0.0292,122.9007,75.0700,109.7354,0,U,44978,999,1736,0,-.355E-5,0
GSAT-30,2020-005A,2024-09-23T13:57:42.621120,1.00271330,.0001776,0.0217,128.8849,37.9319,128.5367,0,U,45026,999,1717,0,-.177E-5,0
EUTELSAT KONNECT,2020-005B,2024-09-23T14:23:36.888000,1.00269776,.0001266,0.0596,93.0010,133.6857,359.3658,0,U,45027,999,1799,0,.37E-6,0
JCSAT-17,2020-013A,2024-09-23T13:17:33.472896,1.00270874,.0004121,5.5413,350.7627,192.3326,155.1594,0,U,45245,999,1689,0,-.327E-5,0
GEO-KOMPSAT-2B,2020-013B,2024-09-23T11:48:42.815808,1.00273335,.0001702,0.0462,342.7300,249.0821,76.4605,0,U,45246,999,1691,0,-.356E-5,0
BEIDOU-3 G2,2020-017A,2024-09-23T14:14:57.783840,1.00272287,.0003675,2.4452,33.1319,187.4492,76.1180,0,U,45344,999,1692,0,-.153E-5,0
AEHF-6 (USA 298),2020-022B,2024-09-23T13:18:03.498624,1.00266945,.0043088,3.9964,298.2822,1.9152,39.8667,0,U,45465,999,1668,0,-.313E-5,0
BEIDOU-3 G3,2020-040A,2024-09-23T13:10:10.591680,1.00267065,.0002358,0.9599,52.0739,328.4840,290.3257,0,U,45807,999,1573,0,-.365E-5,0
APSTAR-6D,2020-045A,2024-09-23T08:56:34.704960,1.00269468,.0004578,0.0161,197.8714,15.8531,57.1301,0,U,45863,999,1552,0,-.33E-5,0
KOREASAT 116,2020-048A,2024-09-23T13:11:48.177024,1.00269825,.000126,0.0163,137.9454,73.2275,105.8730,0,U,45920,999,1530,0,-.374E-5,0
EXPRESS 103,2020-053A,2024-09-23T13:49:42.483360,1.00271020,.0000138,0.0133,229.1912,301.0872,136.5583,0,U,45985,999,1531,0,-.293E-5,0
EXPRESS 80,2020-053B,2024-09-22T18:31:33.682368,1.00272375,.0000383,0.0330,252.7407,200.2422,267.0325,0,U,45986,999,1529,0,-.147E-5,0
BSAT-4B,2020-056A,2024-09-23T13:10:03.085248,1.00270220,.0003879,0.0438,130.4660,37.3537,142.4150,0,U,46112,999,1505,0,-.362E-5,0
MEV-2,2020-056B,2024-09-23T13:13:17.264928,1.00271879,.0000956,0.0168,216.8905,21.9081,321.4092,0,U,46113,999,1586,0,-.23E-6,0
GALAXY 30 (G-30),2020-056C,2024-09-23T13:45:49.935168,1.00271375,.0002302,0.0201,156.4004,39.6638,248.2823,0,U,46114,999,1495,0,.25E-6,0
GAOFEN-13 01,2020-071A,2024-09-23T13:12:25.708320,1.00270253,.0015474,0.0994,288.2698,268.8014,121.9720,0,U,46610,999,1458,0,-.375E-5,0
TIANTONG-1 2,2020-082A,2024-09-23T13:14:18.304800,1.00268002,.0003636,2.1163,294.3091,308.2395,83.7810,0,U,46916,999,1432,0,-.369E-5,0
LUCAS (JDRS-1),2020-089A,2024-09-23T13:49:42.483360,1.00276119,.0002368,0.0265,73.3949,92.8302,134.9148,0,U,47202,999,1408,0,-.249E-5,0
SXM-7,2020-096A,2024-09-23T03:39:17.258112,1.00271878,.0004366,0.0096,149.6744,331.5950,210.8592,0,U,47240,999,111,0,-.216E-5,0
CMS-01,2020-099A,2024-09-23T13:57:42.621120,1.00270395,.0006975,0.0511,102.4083,156.3184,36.6104,0,U,47256,999,1386,0,-.177E-5,0
TURKSAT 5A,2021-001A,2024-09-23T14:29:52.209600,1.00270816,.0000188,0.0228,106.7540,157.9166,346.6587,0,U,47306,999,1363,0,.142E-5,0
TIANTONG-1 3,2021-003A,2024-09-23T13:01:55.164576,1.00269098,.0004762,2.6860,314.0918,257.7872,67.9462,0,U,47321,999,1362,0,-.166E-5,0
TJS-6,2021-010A,2024-09-23T13:32:42.624672,1.00272778,.0003936,0.2043,267.0379,312.8492,164.6672,0,U,47613,999,1347,0,.31E-6,0
SBIRS GEO-5 (USA 315),2021-042A,2024-09-23T07:47:42.614592,1.00272324,.0002137,5.9970,325.8635,234.3457,300.2673,0,U,48618,999,1242,0,.105E-5,0
FENGYUN 4B,2021-047A,2024-09-23T13:17:36.525408,1.00270339,.000482,0.2331,276.4595,153.5018,237.0668,0,U,48808,999,1224,0,-.343E-5,0
SXM-8,2021-049A,2024-09-20T09:09:04.955904,1.00270073,.0006347,0.0093,163.9154,232.9769,14.9680,0,U,48838,999,1222,0,-.213E-5,0
