BEIDOU-3 IGSO-3         
1 44709U 19073A   24266.46191750 -.00000170  00000+0  00000+0 0  9994
2 44709  55.8857 287.6943 0041269 190.9485 168.9962  1.00272911 18093
TIBA-1                  
1 44800U 19080A   24267.31924462  .00000144  00000+0  00000+0 0  9993
2 44800   0.0574 356.8993 0002543 202.0639 314.1065  1.00270938 17720
INMARSAT GX5            
1 44801U 19080B   24267.39493868  .00000063  00000+0  00000+0 0  9993
2 44801   0.0165   7.5502 0002147 200.9765 307.3666  1.00270659   475
JCSAT-18 (KACIFIC 1)    
1 44868U 19091A   24267.24563536 -.00000213  00000+0  00000+0 0  9990
2 44868   0.0457 348.3570 0000796 267.9110 344.7356  1.00271918 17678
ELEKTRO-L 3             
1 44903U 19095A   24267.54187017 -.00000109  00000+0  00000+0 0  9997
2 44903   0.0782 303.9587 0001128 286.0858  43.8919  1.00272551 17367
SHIJIAN-20 (SJ-20)      
1 44910U 19097A   24267.69563295 -.00000081  00000+0  00000+0 0  9998
2 44910   3.2928  82.7581 0008298 115.9285 127.8087  1.00277051 17366
TJS-5                   
1 44978U 20002A   24267.54812556 -.00000355  00000+0  00000+0 0  9995
2 44978   0.0292 122.9007 0003842  75.0700 109.7354  1.00271701 17369
GSAT-30                 
1 45026U 20005A   24267.58174330 -.00000177  00000+0  00000+0 0  9990
2 45026   0.0217 128.8849 0001776  37.9319 128.5367  1.00271330 17177
EUTELSAT KONNECT        
1 45027U 20005B   24267.59973250  .00000037  00000+0  00000+0 0  9994
2 45027   0.0596  93.0010 0001266 133.6857 359.3658  1.00269776 17994
JCSAT-17                
1 45245U 20013A   24267.55385964 -.00000327  00000+0  00000+0 0  9993
2 45245   5.5413 350.7627 0004121 192.3326 155.1594  1.00270874 16897
GEO-KOMPSAT-2B          
1 45246U 20013B   24267.49216222 -.00000356  00000+0  00000+0 0  9999
2 45246   0.0462 342.7300 0001702 249.0821  76.4605  1.00273335 16919
BEIDOU-3 G2             
1 45344U 20017A   24267.59372435 -.00000153  00000+0  00000+0 0  9997
2 45344   2.4452  33.1319 0003675 187.4492  76.1180  1.00272287 16925
AEHF-6 (USA 298)        
1 45465U 20022B   24267.55420716 -.00000313  00000+0  00000+0 0  9997
2 45465   3.9964 298.2822 0043088   1.9152  39.8667  1.00266945 16684
BEIDOU-3 G3             
1 45807U 20040A   24267.54873370 -.00000365  00000+0  00000+0 0  9991
2 45807   0.9599  52.0739 0002358 328.4840 290.3257  1.00267065 15732
APSTAR-6D               
1 45863U 20045A   24267.37262390 -.00000330  00000+0  00000+0 0  9995
2 45863   0.0161 197.8714 0004578  15.8531  57.1301  1.00269468 15526
KOREASAT 116            
1 45920U 20048A   24267.54986316 -.00000374  00000+0  00000+0 0  9990
2 45920   0.0163 137.9454 0001260  73.2275 105.8730  1.00269825 15306
EXPRESS 103             
1 45985U 20053A   24267.57618615 -.00000293  00000+0  00000+0 0  9994
2 45985   0.0133 229.1912 0000138 301.0872 136.5583  1.00271020 15313
EXPRESS 80              
1 45986U 20053B   24266.77191762 -.00000147  00000+0  00000+0 0  9993
2 45986   0.0330 252.7407 0000383 200.2422 267.0325  1.00272375 15292
BSAT-4B                 
1 46112U 20056A   24267.54864682 -.00000362  00000+0  00000+0 0  9991
2 46112   0.0438 130.4660 0003879  37.3537 142.4150  1.00270220 15058
MEV-2                   
1 46113U 20056B   24267.55089427 -.00000023  00000+0  00000+0 0  9993
2 46113   0.0168 216.8905 0000956  21.9081 321.4092  1.00271879 15860
GALAXY 30 (G-30)        
1 46114U 20056C   24267.57349462  .00000025  00000+0  00000+0 0  9995
2 46114   0.0201 156.4004 0002302  39.6638 248.2823  1.00271375 14957
GAOFEN-13 01            
1 46610U 20071A   24267.55029755 -.00000375  00000+0  00000+0 0  9990
2 46610   0.0994 288.2698 0015474 268.8014 121.9720  1.00270253 14584
TIANTONG-1 2            
1 46916U 20082A   24267.55160075 -.00000369  00000+0  00000+0 0  9995
2 46916   2.1163 294.3091 0003636 308.2395  83.7810  1.00268002 14323
LUCAS (JDRS-1)          
1 47202U 20089A   24267.57618615 -.00000249  00000+0  00000+0 0  9998
2 47202   0.0265  73.3949 0002368  92.8302 134.9148  1.00276119 14088
SXM-7                   
1 47240U 20096A   24267.15228308 -.00000216  00000+0  00000+0 0  9992
2 47240   0.0096 149.6744 0004366 331.5950 210.8592  1.00271878  1118
CMS-01                  
1 47256U 20099A   24267.58174330 -.00000177  00000+0  00000+0 0  9990
2 47256   0.0511 102.4083 0006975 156.3184  36.6104  1.00270395 13861
TURKSAT 5A              
1 47306U 21001A   24267.60407650  .00000142  00000+0  00000+0 0  9998
2 47306   0.0228 106.7540 0000188 157.9166 346.6587  1.00270816 13636
TIANTONG-1 3            
1 47321U 21003A   24267.54299959 -.00000166  00000+0  00000+0 0  9998
2 47321   2.6860 314.0918 0004762 257.7872  67.9462  1.00269098 13625
TJS-6                   
1 47613U 21010A   24267.56438223  .00000031  00000+0  00000+0 0  9991
2 47613   0.2043 267.0379 0003936 312.8492 164.6672  1.00272778 13477
SBIRS GEO-5 (USA 315)   
1 48618U 21042A   24267.32479878  .00000105  00000+0  00000+0 0  9999
2 48618   5.9970 325.8635 0002137 234.3457 300.2673  1.00272324 12423
FENGYUN 4B              
1 48808U 21047A   24267.55389497 -.00000343  00000+0  00000+0 0  9992
2 48808   0.2331 276.4595 0004820 153.5018 237.0668  1.00270339 12240
SXM-8                   
1 48838U 21049A   24264.38130736 -.00000213  00000+0  00000+0 0  9991
2 48838   0.0093 163.9154 0006347 232.9769  14.9680  1.00270073 12227
